TANSAT                  
1 41898U 16081A   26132.26690674  .00000502  00000+0  11496-3 0  9990
2 41898  98.5373 131.4650 0021780  61.6238 298.7153 14.59920246499381
JILIN-1 03              
1 41914U 17002B   26132.24894262  .00008163  00000+0  20193-3 0  9995
2 41914  97.1963 139.8641 0003935 316.9375  43.1564 15.40699153516325
CARTOSAT-2D             
1 41948U 17008A   26132.32898801  .00001585  00000+0  78501-4 0  9998
2 41948  97.4129 192.2983 0004938  21.1752 338.9686 15.19214866512134
CARTOSAT-2E             
1 42767U 17036C   26132.28049010  .00002420  00000+0  11785-3 0  9993
2 42767  97.4299 192.6689 0004444  81.5102 278.6636 15.19302506492692
IRIDIUM 113             
1 42803U 17039A   26132.10026857  .00000077  00000+0  20367-4 0  9995
2 42803  86.3973 337.2700 0002225  92.8156 267.3294 14.34217570466013
NORSAT 2                
1 42828U 17042D   26132.05404679  .00006365  00000+0  28817-3 0  9995
2 42828  97.4026 306.0938 0010081 171.2653 188.8761 15.21185055482240
TECHNOSAT               
1 42829U 17042E   26132.00982441  .00001430  00000+0  10543-3 0  9994
2 42829  97.4235 291.0600 0016946 213.5965 146.4189 15.04727097481268
FLYING LAPTOP           
1 42831U 17042G   26132.32062440  .00002191  00000+0  17609-3 0  9995
2 42831  97.4529 289.2748 0017679 244.7627 115.1765 15.00905138481076
WNISAT 1R               
1 42835U 17042L   26132.17606033  .00001833  00000+0  14570-3 0  9990
2 42835  97.4791 289.5970 0010440 288.2795  71.7293 15.01592395481104
LEMUR-2-GREENBERG       
1 42837U 17042N   26132.06766334  .00010437  00000+0  35929-3 0  9992
2 42837  97.3813 312.8956 0010247 129.7813 230.4332 15.30187317482867
LEMUR-2-FURIAUS         
1 42840U 17042R   26131.44603686  .00011368  00000+0  40551-3 0  9998
2 42840  97.3770 310.3181 0007649 184.7235 175.3935 15.29022005482593
CORVUS BC2              
1 42846U 17042X   26132.25320235  .00002297  00000+0  16122-3 0  9998
2 42846  97.4038 295.0143 0011924 230.4231 129.5944 15.06063456481657
CORVUS BC1              
1 42847U 17042Y   26132.18546146  .00002283  00000+0  15951-3 0  9996
2 42847  97.4071 295.7398 0011253 204.4002 155.6695 15.06235198481675
VRSS-2                  
1 42954U 17060A   26132.31481647  .00000172  00000+0  28565-4 0  9995
2 42954  97.6545 171.6536 0016044 213.2614 146.7592 14.81132880463143
MOHAMMED VI-A           
1 43005U 17070A   26132.30772800  .00000767  00000+0  11574-3 0  9998
2 43005  97.9563 205.1298 0001388 104.5192 255.6172 14.77091981458688
FENGYUN 3D              
1 43010U 17072A   26132.27558664  .00000285  00000+0  15634-3 0  9998
2 43010  99.0108 106.0539 0002116 122.3065 237.8315 14.19732274439892
NOAA 20 (JPSS-1)        
1 43013U 17073A   26132.26469925  .00000024  00000+0  32270-4 0  9999
2 43013  98.7759  72.0496 0001752  51.6041 308.5292 14.19550879439372
MAKERSAT 0              
1 43016U 17073D   26132.17512071  .00015764  00000+0  44167-3 0  9997
2 43016  97.4681  14.4471 0111834  41.9670 319.0072 15.30547279460956
RADFXSAT (FOX-1B)       
1 43017U 17073E   26132.08327222  .00005857  00000+0  25802-3 0  9997
2 43017  97.4764   0.0492 0154207  93.2568 268.6318 15.12044732459934
JILIN-1 04              
1 43022U 17074A   26132.26417605  .00007908  00000+0  19058-3 0  9994
2 43022  97.4817 240.9542 0003075 342.6360  17.4781 15.41524254468733
JILIN-1 05              
1 43023U 17074B   26132.29937498  .00005257  00000+0  16578-3 0  9994
2 43023  97.4827 237.9920 0005161  12.3254 347.8113 15.33313340468509
JILIN-1 06              
1 43024U 17074C   26132.26871529  .00003532  00000+0  11229-3 0  9996
2 43024  97.4755 235.0107 0007158  19.8574 340.2945 15.33285731468334
IRIDIUM 116             
1 43072U 17083C   26132.28421028  .00000165  00000+0  51961-4 0  9993
2 43072  86.3964 337.0186 0002174  79.4584 280.6856 14.34218310439023
IRIDIUM 130             
1 43073U 17083D   26132.11295387 -.00000001  00000+0 -73672-5 0  9998
2 43073  86.3969 337.3616 0002172  81.8025 278.3417 14.34217458438944
LKW-2                   
1 43080U 17084A   26132.29304170  .00002290  00000+0  92112-4 0  9996
2 43080  97.1226 173.7743 0002835  51.4741 308.6752 15.25854589466218
SUPERVIEW-1 03          
1 43099U 18002A   26132.26664255  .00008820  00000+0  22856-3 0  9999
2 43099  97.3129 217.1928 0046525 311.2444  48.4796 15.38143679462848
CARTOSAT-2F             
1 43111U 18004A   26132.24614175  .00002984  00000+0  14505-3 0  9997
2 43111  97.4412 192.2311 0001919  59.9061 300.2364 15.19198641461877
LKW-3                   
1 43146U 18006A   26132.32746808  .00005363  00000+0  16281-3 0  9992
2 43146  97.6577 291.5297 0004215  81.1457 279.0262 15.34537962463213
