OBJECT_NAME,OBJECT_ID,EPOCH,MEAN_MOTION,ECCENTRICITY,INCLINATION,RA_OF_ASC_NODE,ARG_OF_PERICENTER,MEAN_ANOMALY,EPHEMERIS_TYPE,CLASSIFICATION_TYPE,NORAD_CAT_ID,ELEMENT_SET_NO,REV_AT_EPOCH,BSTAR,MEAN_MOTION_DOT,MEAN_MOTION_DDOT
TANSAT,2016-081A,2026-05-12T06:24:20.742336,14.59920246,.00217804,98.5373,131.4650,61.6238,298.7153,0,U,41898,999,49938,.11495959E-3,.502E-5,0
JILIN-1 03,2017-002B,2026-05-12T05:58:28.642368,15.40699153,.00039353,97.1963,139.8641,316.9375,43.1564,0,U,41914,999,51632,.20192908E-3,.8163E-4,0
CARTOSAT-2D,2017-008A,2026-05-12T07:53:44.564064,15.19214866,.00049385,97.4129,192.2983,21.1752,338.9686,0,U,41948,999,51213,.78500637E-4,.1585E-4,0
CARTOSAT-2E,2017-036C,2026-05-12T06:43:54.344640,15.19302506,.00044444,97.4299,192.6689,81.5102,278.6636,0,U,42767,999,49269,.1178544E-3,.242E-4,0
IRIDIUM 113,2017-039A,2026-05-12T02:24:23.204448,14.34217570,.00022257,86.3973,337.2700,92.8156,267.3294,0,U,42803,999,46601,.20367381E-4,.77E-6,0
NORSAT 2,2017-042D,2026-05-12T01:17:49.642656,15.21185055,.0010081,97.4026,306.0938,171.2653,188.8761,0,U,42828,999,48224,.28816848E-3,.6365E-4,0
TECHNOSAT,2017-042E,2026-05-12T00:14:08.829024,15.04727097,.00169467,97.4235,291.0600,213.5965,146.4189,0,U,42829,999,48126,.10542643E-3,.143E-4,0
FLYING LAPTOP,2017-042G,2026-05-12T07:41:41.948160,15.00905138,.00176798,97.4529,289.2748,244.7627,115.1765,0,U,42831,999,48107,.17609121E-3,.2191E-4,0
WNISAT 1R,2017-042L,2026-05-12T04:13:31.612512,15.01592395,.001044,97.4791,289.5970,288.2795,71.7293,0,U,42835,999,48110,.14569505E-3,.1833E-4,0
LEMUR-2-GREENBERG,2017-042N,2026-05-12T01:37:26.112576,15.30187317,.00102479,97.3813,312.8956,129.7813,230.4332,0,U,42837,999,48286,.35928657E-3,.10437E-3,0
LEMUR-2-FURIAUS,2017-042R,2026-05-11T10:42:17.584704,15.29022005,.00076497,97.3770,310.3181,184.7235,175.3935,0,U,42840,999,48259,.40551126E-3,.11368E-3,0
CORVUS BC2,2017-042X,2026-05-12T06:04:36.683040,15.06063456,.00119246,97.4038,295.0143,230.4231,129.5944,0,U,42846,999,48165,.16122477E-3,.2297E-4,0
CORVUS BC1,2017-042Y,2026-05-12T04:27:03.870144,15.06235198,.00112531,97.4071,295.7398,204.4002,155.6695,0,U,42847,999,48167,.15950607E-3,.2283E-4,0
VRSS-2,2017-060A,2026-05-12T07:33:20.143008,14.81132880,.00160444,97.6545,171.6536,213.2614,146.7592,0,U,42954,999,46314,.28565466E-4,.172E-5,0
MOHAMMED VI-A,2017-070A,2026-05-12T07:23:07.699200,14.77091981,.00013881,97.9563,205.1298,104.5192,255.6172,0,U,43005,999,45868,.11574435E-3,.767E-5,0
FENGYUN 3D,2017-072A,2026-05-12T06:36:50.685696,14.19732274,.00021166,99.0108,106.0539,122.3065,237.8315,0,U,43010,999,43989,.15634257E-3,.285E-5,0
NOAA 20 (JPSS-1),2017-073A,2026-05-12T06:21:10.015200,14.19550879,.00017523,98.7759,72.0496,51.6041,308.5292,0,U,43013,999,43937,.32269861E-4,.24E-6,0
MAKERSAT 0,2017-073D,2026-05-12T04:12:10.429344,15.30547279,.01118347,97.4681,14.4471,41.9670,319.0072,0,U,43016,999,46095,.44166751E-3,.15764E-3,0
RADFXSAT (FOX-1B),2017-073E,2026-05-12T01:59:54.719808,15.12044732,.01542074,97.4764,0.0492,93.2568,268.6318,0,U,43017,999,45993,.25802466E-3,.5857E-4,0
JILIN-1 04,2017-074A,2026-05-12T06:20:24.810720,15.41524254,.00030753,97.4817,240.9542,342.6360,17.4781,0,U,43022,999,46873,.19058144E-3,.7908E-4,0
JILIN-1 05,2017-074B,2026-05-12T07:11:05.998272,15.33313340,.00051616,97.4827,237.9920,12.3254,347.8113,0,U,43023,999,46850,.16578039E-3,.5257E-4,0
JILIN-1 06,2017-074C,2026-05-12T06:26:57.001056,15.33285731,.00071589,97.4755,235.0107,19.8574,340.2945,0,U,43024,999,46833,.11228969E-3,.3532E-4,0
IRIDIUM 116,2017-083C,2026-05-12T06:49:15.768192,14.34218310,.00021743,86.3964,337.0186,79.4584,280.6856,0,U,43072,999,43902,.51961282E-4,.165E-5,0
IRIDIUM 130,2017-083D,2026-05-12T02:42:39.214368,14.34217458,.0002172,86.3969,337.3616,81.8025,278.3417,0,U,43073,999,43894,-.7367151E-5,-.1E-7,0
LKW-2,2017-084A,2026-05-12T07:01:58.802880,15.25854589,.00028352,97.1226,173.7743,51.4741,308.6752,0,U,43080,999,46621,.92111925E-4,.229E-4,0
SUPERVIEW-1 03,2018-002A,2026-05-12T06:23:57.916320,15.38143679,.00465259,97.3129,217.1928,311.2444,48.4796,0,U,43099,999,46284,.22856402E-3,.882E-4,0
CARTOSAT-2F,2018-004A,2026-05-12T05:54:26.647200,15.19198641,.0001919,97.4412,192.2311,59.9061,300.2364,0,U,43111,999,46187,.14505E-3,.2984E-4,0
LKW-3,2018-006A,2026-05-12T07:51:33.242112,15.34537962,.00042159,97.6577,291.5297,81.1457,279.0262,0,U,43146,999,46321,.1628069E-3,.5363E-4,0
